NORAD_CAT_ID,OBJECT_NAME,OBJECT_TYPE,EPOCH,MEAN_MOTION,ECCENTRICITY,INCLINATION,RA_OF_ASC_NODE,ARG_OF_PERICENTER,MEAN_ANOMALY,BSTAR,MEAN_MOTION_DOT,MEAN_MOTION_DDOT,TLE_LINE0,TLE_LINE1,TLE_LINE2,SEMIMAJOR_AXIS,PERIOD,APOGEE,PERIGEE,DECAYED
52998.0,STARLINK-4254,PAYLOAD,2023-01-09 01:35:07,15.08847745,0.0001786999999999,53.2123,241.9276,45.2995,314.8142,0.00045664,6.988e-05,0.0,0 STARLINK-4254,1 52998U 22076N   23009.06605329  .00006988  00000-0  45664-3 0  9994,2 52998  53.2123 241.9276 0001787  45.2995 314.8142 15.08847745 28854,6917.857,95.437,540.9580000000002,538.485,0.0
52998.0,STARLINK-4254,PAYLOAD,2023-01-09 07:56:39,15.08844425,0.0001761999999999,53.2124,240.7377,42.183,317.9297,0.00025695,3.804e-05,0.0,0 STARLINK-4254,1 52998U 22076N   23009.33101303  .00003804  00000-0  25695-3 0  9993,2 52998  53.2124 240.7377 0001762  42.1830 317.9297 15.08844425 28421,6917.866999999998,95.437,540.951,538.513,0.0
52998.0,STARLINK-4254,PAYLOAD,2023-01-09 15:53:35,15.08847475,0.0001861,53.2129,239.2504,42.4072,317.7064,0.00028918,4.318e-05,0.0,0 STARLINK-4254,1 52998U 22076N   23009.66221169  .00004318  00000-0  28918-3 0  9994,2 52998  53.2129 239.2504 0001861  42.4072 317.7064 15.08847475 28947,6917.858,95.437,541.01,538.435,0.0
52998.0,STARLINK-4254,PAYLOAD,2023-01-09 22:15:07,15.08850591,0.0001866,53.2129,238.0608,42.7157,317.398,0.00028968,4.326e-05,0.0,0 STARLINK-4254,1 52998U 22076N   23009.92716945  .00004326  00000-0  28968-3 0  9998,2 52998  53.2129 238.0608 0001866  42.7157 317.3980 15.08850591 28510,6917.848000000001,95.437,541.004,538.422,0.0
52998.0,STARLINK-4254,PAYLOAD,2023-01-10 07:47:26,15.08847494,0.0001847,53.2123,236.2767,43.9132,316.2006,0.0001399,1.94e-05,0.0,0 STARLINK-4254,1 52998U 22076N   23010.32460831  .00001940  00000-0  13990-3 0  9992,2 52998  53.2123 236.2767 0001847  43.9132 316.2006 15.08847494 28576,6917.857,95.437,541.0,538.445,0.0
52998.0,STARLINK-4254,PAYLOAD,2023-01-11 07:38:13,15.08836636,0.0001929,53.2116,231.8161,51.3251,308.7914,-1.8183e-05,-5.78e-06,0.0,0 STARLINK-4254,1 52998U 22076N   23011.31821313 -.00000578  00000-0 -18183-4 0  9996,2 52998  53.2116 231.8161 0001929  51.3251 308.7914 15.08836636 29192,6917.891,95.438,541.09,538.4209999999998,0.0
52998.0,STARLINK-4254,PAYLOAD,2023-01-11 15:35:09,15.08835807,0.0001979,53.2113,230.3293,54.6517,305.466,-3.9451e-05,-9.16e-06,0.0,0 STARLINK-4254,1 52998U 22076N   23011.64941423 -.00000916  00000-0 -39451-4 0  9994,2 52998  53.2113 230.3293 0001979  54.6517 305.4660 15.08835807 28779,6917.893,95.438,541.127,538.389,0.0
52998.0,STARLINK-4254,PAYLOAD,2023-01-12 20:12:06,15.08832894,0.0002056,53.2125,224.9768,58.2848,301.8345,6.1249e-05,6.87e-06,0.0,0 STARLINK-4254,1 52998U 22076N   23012.84174370  .00000687  00000-0  61249-4 0  9999,2 52998  53.2125 224.9768 0002056  58.2848 301.8345 15.08832894 29428,6917.901999999999,95.438,541.189,538.345,0.0
52998.0,STARLINK-4254,PAYLOAD,2023-01-13 13:41:20,15.08841566,0.0002020999999999,53.2128,221.7051,58.6109,301.508,0.00012587,1.716e-05,0.0,0 STARLINK-4254,1 52998U 22076N   23013.57037868  .00001716  00000-0  12587-3 0  9994,2 52998  53.2128 221.7051 0002021  58.6109 301.5080 15.08841566 29538,6917.876,95.437,541.139,538.342,0.0
52998.0,STARLINK-4254,PAYLOAD,2023-01-13 20:02:53,15.08844778,0.0002026999999999,53.2126,220.5155,59.1981,300.921,0.00014669,2.047e-05,0.0,0 STARLINK-4254,1 52998U 22076N   23013.83533608  .00002047  00000-0  14669-3 0  9997,2 52998  53.2126 220.5155 0002027  59.1981 300.9210 15.08844778 29107,6917.866,95.437,541.133,538.3290000000001,0.0
52998.0,STARLINK-4254,PAYLOAD,2023-01-14 23:04:26,15.08840194,0.000202,53.2121,215.459,62.754,297.3657,8.9957e-05,1.144e-05,0.0,0 STARLINK-4254,1 52998U 22076N   23014.96142167  .00001144  00000-0  89957-4 0  9998,2 52998  53.2121 215.4590 0002020  62.7540 297.3657 15.08840194 29744,6917.88,95.438,541.1419999999999,538.347,0.0
52998.0,STARLINK-4254,PAYLOAD,2023-01-15 13:22:54,15.08845081,0.0002101,53.2108,212.7822,66.9164,293.205,-0.00010209,-1.913e-05,0.0,0 STARLINK-4254,1 52998U 22076N   23015.55757883 -.00001913  00000-0 -10209-3 0  9990,2 52998  53.2108 212.7822 0002101  66.9164 293.2050 15.08845081 29365,6917.865,95.437,541.183,538.276,0.0
52998.0,STARLINK-4254,PAYLOAD,2023-01-15 19:44:27,15.08845291,0.0001838,53.2123,211.5922,64.5054,295.6128,5.5103e-05,5.89e-06,0.0,0 STARLINK-4254,1 52998U 22076N   23015.82253751  .00000589  00000-0  55103-4 0  9994,2 52998  53.2123 211.5922 0001838  64.5054 295.6128 15.08845291 29408,6917.8640000000005,95.437,541.001,538.4580000000001,0.0
52998.0,STARLINK-4254,PAYLOAD,2023-01-16 13:13:42,15.08835489,0.0001885,53.212,208.322,67.0462,293.0729,1.7499e-05,-1e-07,0.0,0 STARLINK-4254,1 52998U 22076N   23016.55118329 -.00000010  00000-0  17499-4 0  9992,2 52998  53.2120 208.3220 0001885  67.0462 293.0729 15.08835489 29983,6917.894,95.438,541.063,538.455,0.0
52998.0,STARLINK-4254,PAYLOAD,2023-01-16 21:10:37,15.08839758,0.0001815,53.2128,206.8342,68.9057,291.2129,6.4643e-05,7.41e-06,0.0,0 STARLINK-4254,1 52998U 22076N   23016.88238172  .00000741  00000-0  64643-4 0  9990,2 52998  53.2128 206.8342 0001815  68.9057 291.2129 15.08839758 29563,6917.880999999999,95.438,541.002,538.491,0.0
52998.0,STARLINK-4254,PAYLOAD,2023-01-17 13:04:30,15.08823512,0.0001911999999999,53.2143,203.8622,77.8853,282.2353,-8.565399999999999e-05,-1.65e-05,0.0,0 STARLINK-4254,1 52998U 22076N   23017.54480018 -.00001650  00000-0 -85654-4 0  9999,2 52998  53.2143 203.8622 0001912  77.8853 282.2353 15.08823512 30134,6917.931,95.439,541.118,538.4730000000001,0.0
52998.0,STARLINK-4254,PAYLOAD,2023-01-17 19:26:03,15.08821531,0.0001915,53.2144,202.6729,76.7083,283.4122,-9.9823e-05,-1.876e-05,0.0,0 STARLINK-4254,1 52998U 22076N   23017.80976444 -.00001876  00000-0 -99823-4 0  9994,2 52998  53.2144 202.6729 0001915  76.7083 283.4122 15.08821531 29703,6917.937,95.439,541.127,538.477,0.0
52998.0,STARLINK-4254,PAYLOAD,2023-01-18 11:19:55,15.08826677,0.0001796,53.2139,199.6975,73.1215,286.9974,1.6608e-05,-2.4e-07,0.0,0 STARLINK-4254,1 52998U 22076N   23018.47216496 -.00000024  00000-0  16608-4 0  9995,2 52998  53.2139 199.6975 0001796  73.1215 286.9974 15.08826677 29800,6917.920999999999,95.438,541.029,538.544,0.0
52998.0,STARLINK-4254,PAYLOAD,2023-01-18 19:16:49,15.08860634,0.0001779,53.216,198.2122,71.0796,289.0389,-0.00031858,-5.358e-05,0.0,0 STARLINK-4254,1 52998U 22076N   23018.80335321 -.00005358  00000-0 -31858-3 0  9990,2 52998  53.2160 198.2122 0001779  71.0796 289.0389 15.08860634 30329,6917.816999999999,95.436,540.913,538.452,0.0
52998.0,STARLINK-4254,PAYLOAD,2023-01-19 04:49:09,15.08839364,0.0001869,53.2136,196.4264,74.2295,285.8903,0.00012105,1.639e-05,0.0,0 STARLINK-4254,1 52998U 22076N   23019.20079964  .00001639  00000-0  12105-3 0  9993,2 52998  53.2136 196.4264 0001869  74.2295 285.8903 15.08839364 30386,6917.882,95.438,541.04,538.4540000000001,0.0
52998.0,STARLINK-4254,PAYLOAD,2023-01-19 11:10:41,15.08853086,0.0001976,53.2136,195.2368,73.5669,286.55400000000003,-3.1772000000000003e-06,-3.39e-06,0.0,0 STARLINK-4254,1 52998U 22076N   23019.46575281 -.00000339  00000-0 -31772-5 0  9995,2 52998  53.2136 195.2368 0001976  73.5669 286.5540 15.08853086 30421,6917.84,95.437,541.072,538.3380000000001,0.0
52998.0,STARLINK-4254,PAYLOAD,2023-01-19 12:46:04,15.08837922,0.0001844999999999,53.2131,194.9394,74.8771,285.2425,0.00034278,5.171e-05,0.0,0 STARLINK-4254,1 52998U 22076N   23019.53200011  .00005171  00000-0  34278-3 0  9998,2 52998  53.2131 194.9394 0001845  74.8771 285.2425 15.08837922 29960,6917.887,95.438,541.028,538.475,0.0
52998.0,STARLINK-4254,PAYLOAD,2023-01-19 19:07:37,15.08855013,0.0001895,53.213,193.7505,74.5946,285.5255,0.00060271,9.321e-05,0.0,0 STARLINK-4254,1 52998U 22076N   23019.79695960  .00009321  00000-0  60271-3 0  9990,2 52998  53.2130 193.7505 0001895  74.5946 285.5255 15.08855013 30479,6917.835,95.437,541.01,538.389,0.0
52998.0,STARLINK-4254,PAYLOAD,2023-01-20 20:33:46,15.08863435,0.0001969,53.2129,188.9925,75.0859,285.0351,0.00039064,5.938e-05,0.0,0 STARLINK-4254,1 52998U 22076N   23020.85678859  .00005938  00000-0  39064-3 0  9993,2 52998  53.2129 188.9925 0001969  75.0859 285.0351 15.08863435 30637,6917.809,95.436,541.036,538.312,0.0
52998.0,STARLINK-4254,PAYLOAD,2023-01-21 04:30:42,15.08852482,0.0002364,53.2131,187.5058,76.7258,283.3998,0.00011503,1.543e-05,0.0,0 STARLINK-4254,1 52998U 22076N   23021.18799044  .00001543  00000-0  11503-3 0  9996,2 52998  53.2131 187.5058 0002364  76.7258 283.3998 15.08852482 30686,6917.842,95.437,541.3430000000001,538.072,0.0
52998.0,STARLINK-4254,PAYLOAD,2023-01-22 04:21:28,15.08848766,0.0001829,53.2125,183.0447,79.1951,280.9247,7.299e-05,8.74e-06,0.0,0 STARLINK-4254,1 52998U 22076N   23022.18158529  .00000874  00000-0  72990-4 0  9998,2 52998  53.2125 183.0447 0001829  79.1951 280.9247 15.08848766 30831,6917.854,95.437,540.984,538.453,0.0
52998.0,STARLINK-4254,PAYLOAD,2023-01-22 10:43:01,15.08840246,0.0001940999999999,53.2116,181.8545,84.6662,275.4551,8.446e-05,1.056e-05,0.0,0 STARLINK-4254,1 52998U 22076N   23022.44654883  .00001056  00000-0  84460-4 0  9999,2 52998  53.2116 181.8545 0001941  84.6662 275.4551 15.08840246 30877,6917.88,95.438,541.087,538.4019999999999,0.0
52998.0,STARLINK-4254,PAYLOAD,2023-01-23 16:55:21,15.08841985,0.0001694,53.2139,176.2051,87.244,272.8746,5.8306e-05,6.4e-06,0.0,0 STARLINK-4254,1 52998U 22076N   23023.70510726  .00000640  00000-0  58306-4 0  9994,2 52998  53.2139 176.2051 0001694  87.2440 272.8746 15.08841985 31060,6917.874,95.437,540.911,538.567,0.0
52998.0,STARLINK-4254,PAYLOAD,2023-01-24 19:56:54,15.08847304,0.0001594,53.2136,171.15,87.7696,272.3479,0.00019187,2.768e-05,0.0,0 STARLINK-4254,1 52998U 22076N   23024.83118463  .00002768  00000-0  19187-3 0  9997,2 52998  53.2136 171.1500 0001594  87.7696 272.3479 15.08847304 31235,6917.858,95.437,540.826,538.62,0.0
